HAWK-11B                
1 62379U 24247C   26068.44730104  .00009093  00000+0  32842-3 0  9993
2 62379  45.0161 115.7610 0004690 333.0326  27.0314 15.28847070 67738
STARLINK-34155          
1 64019U 25101AB  26068.66670139  .00035482  00000+0  12939-2 0  9996
2 64019  43.0017 358.2204 0001407 280.9514 314.4148 15.27548469  5878
